{
  "packFormatVersion": 1,
  "source": "nasa-exoplanet-archive-pscomppars",
  "generatedAtIso": "2026-06-12T00:00:00.000Z",
  "systems": [
    {
      "id": "exo:toi-1743",
      "name": "TOI-1743",
      "star": {
        "id": "exo:toi-1743",
        "kind": "star",
        "name": "TOI-1743",
        "positionPc": [
          -7.868308274196577,
          33.537821698100096,
          22.737543981859634
        ],
        "absMag": 11.893522502837227,
        "colorIndexBV": 1.8997067832707026
      },
      "bodies": [
        {
          "id": "exo:toi-1743:star",
          "kind": "planet",
          "parentId": "exo:toi-1743",
          "radiusKm": 235146.6,
          "unlit": true,
          "surfaceColorLinear": [
            1,
            0.4909332865049689,
            0.2154398039187164
          ]
        },
        {
          "id": "exo:toi-1743:b",
          "kind": "planet",
          "name": "TOI-1743 b",
          "parentId": "exo:toi-1743",
          "radiusKm": 11658.93,
          "elements": {
            "semiMajorAxisAu": 0.03589,
            "eccentricity": 0,
            "inclinationRad": 1.0904737523230688,
            "ascendingNodeLongitudeRad": 2.272838916063815,
            "argumentOfPeriapsisRad": 4.891691901962507,
            "meanAnomalyAtEpochRad": 5.210041193208311,
            "epochJD": 2451545,
            "muKm3S2": 44989517166.102005
          },
          "surfaceColorLinear": [
            0.25,
            0.35,
            0.45
          ]
        }
      ]
    },
    {
      "id": "exo:toi-1759",
      "name": "TOI-1759",
      "star": {
        "id": "exo:toi-1759",
        "kind": "star",
        "name": "TOI-1759",
        "positionPc": [
          -9.316530282352566,
          38.65736702824776,
          4.903724619823216
        ],
        "absMag": 8.916152585228033,
        "colorIndexBV": 1.3320250544277226
      },
      "bodies": [
        {
          "id": "exo:toi-1759:star",
          "kind": "planet",
          "parentId": "exo:toi-1759",
          "radiusKm": 415332.89999999997,
          "unlit": true,
          "surfaceColorLinear": [
            1,
            0.6268073447675407,
            0.3970181107612804
          ]
        },
        {
          "id": "exo:toi-1759:b",
          "kind": "planet",
          "name": "TOI-1759 b",
          "parentId": "exo:toi-1759",
          "radiusKm": 20004.940000000002,
          "elements": {
            "semiMajorAxisAu": 0.1177,
            "eccentricity": 0,
            "inclinationRad": 1.2555400333421147,
            "ascendingNodeLongitudeRad": 1.2717986343980026,
            "argumentOfPeriapsisRad": 1.5707963267948966,
            "meanAnomalyAtEpochRad": 4.906495898539815,
            "epochJD": 2451545,
            "muKm3S2": 80423738650.908
          },
          "surfaceColorLinear": [
            0.25,
            0.35,
            0.45
          ]
        }
      ]
    },
    {
      "id": "exo:toi-1776",
      "name": "TOI-1776",
      "star": {
        "id": "exo:toi-1776",
        "kind": "star",
        "name": "TOI-1776",
        "positionPc": [
          -20.112420699655395,
          1.8670973442268077,
          39.81656803499768
        ],
        "absMag": 5.011038588380819,
        "colorIndexBV": 0.6482024762341366
      },
      "bodies": [
        {
          "id": "exo:toi-1776:star",
          "kind": "planet",
          "parentId": "exo:toi-1776",
          "radiusKm": 650896.92,
          "unlit": true,
          "surfaceColorLinear": [
            1,
            0.8922438835744875,
            0.7971601883492716
          ]
        },
        {
          "id": "exo:toi-1776:b",
          "kind": "planet",
          "name": "TOI-1776 b",
          "parentId": "exo:toi-1776",
          "radiusKm": 7747.947729109999,
          "elements": {
            "semiMajorAxisAu": 0.0378,
            "eccentricity": 0,
            "inclinationRad": 0.48984385755661347,
            "ascendingNodeLongitudeRad": 4.687322710033916,
            "argumentOfPeriapsisRad": 1.5707963267948966,
            "meanAnomalyAtEpochRad": 6.1179156935282295,
            "epochJD": 2451545,
            "muKm3S2": 122042359840.5528
          },
          "surfaceColorLinear": [
            0.55,
            0.35,
            0.2
          ]
        }
      ]
    },
    {
      "id": "exo:toi-1801",
      "name": "TOI-1801",
      "star": {
        "id": "exo:toi-1801",
        "kind": "star",
        "name": "TOI-1801",
        "positionPc": [
          -6.16409036339549,
          -5.914160334998294,
          29.466329151765528
        ],
        "absMag": 9.145751535043775,
        "colorIndexBV": 1.4546615536639977
      },
      "bodies": [
        {
          "id": "exo:toi-1801:star",
          "kind": "planet",
          "parentId": "exo:toi-1801",
          "radiusKm": 380547.9,
          "unlit": true,
          "surfaceColorLinear": [
            1,
            0.5929157079198902,
            0.34962898124508
          ]
        },
        {
          "id": "exo:toi-1801:b",
          "kind": "planet",
          "name": "TOI-1801 b",
          "parentId": "exo:toi-1801",
          "radiusKm": 13245.309000000001,
          "elements": {
            "semiMajorAxisAu": 0.075,
            "eccentricity": 0,
            "inclinationRad": 2.129401314049332,
            "ascendingNodeLongitudeRad": 3.451670292950952,
            "argumentOfPeriapsisRad": 1.5707963267948966,
            "meanAnomalyAtEpochRad": 4.014492338988284,
            "epochJD": 2451545,
            "muKm3S2": 73788116650.00801
          },
          "surfaceColorLinear": [
            0.25,
            0.35,
            0.45
          ]
        }
      ]
    },
    {
      "id": "exo:toi-1807",
      "name": "TOI-1807",
      "star": {
        "id": "exo:toi-1807",
        "kind": "star",
        "name": "TOI-1807",
        "positionPc": [
          -0.747111126280242,
          10.078931075018785,
          41.36061507728156
        ],
        "absMag": 6.854099211914436,
        "colorIndexBV": 0.931291521847457
      },
      "bodies": [
        {
          "id": "exo:toi-1807:star",
          "kind": "planet",
          "parentId": "exo:toi-1807",
          "radiusKm": 518992.2,
          "unlit": true,
          "surfaceColorLinear": [
            1,
            0.7627066575924444,
            0.5966723149420913
          ]
        },
        {
          "id": "exo:toi-1807:b",
          "kind": "planet",
          "name": "TOI-1807 b",
          "parentId": "exo:toi-1807",
          "radiusKm": 9536.21365293,
          "elements": {
            "semiMajorAxisAu": 0.0122,
            "eccentricity": 0,
            "inclinationRad": 2.076114890467299,
            "ascendingNodeLongitudeRad": 3.301810084043155,
            "argumentOfPeriapsisRad": 1.5707963267948966,
            "meanAnomalyAtEpochRad": 0.7341188894898598,
            "epochJD": 2451545,
            "muKm3S2": 106806971726.48639
          },
          "surfaceColorLinear": [
            0.55,
            0.35,
            0.2
          ]
        }
      ]
    },
    {
      "id": "exo:toi-1846",
      "name": "TOI-1846",
      "star": {
        "id": "exo:toi-1846",
        "kind": "star",
        "name": "TOI-1846",
        "positionPc": [
          5.117790602212063,
          37.84500137798667,
          27.822451191442994
        ],
        "absMag": 10.599009318686615,
        "colorIndexBV": 1.6597803646956704
      },
      "bodies": [
        {
          "id": "exo:toi-1846:star",
          "kind": "planet",
          "parentId": "exo:toi-1846",
          "radiusKm": 276192.9,
          "unlit": true,
          "surfaceColorLinear": [
            1,
            0.5422707956036498,
            0.281203766282165
          ]
        },
        {
          "id": "exo:toi-1846:b",
          "kind": "planet",
          "name": "TOI-1846 b",
          "parentId": "exo:toi-1846",
          "radiusKm": 11416.832,
          "elements": {
            "semiMajorAxisAu": 0.03646,
            "eccentricity": 0,
            "inclinationRad": 0.27316033565091313,
            "ascendingNodeLongitudeRad": 0.9355362696865012,
            "argumentOfPeriapsisRad": 5.528329050672295,
            "meanAnomalyAtEpochRad": 2.6370762682172613,
            "epochJD": 2451545,
            "muKm3S2": 55473799927.523994
          },
          "surfaceColorLinear": [
            0.25,
            0.35,
            0.45
          ]
        }
      ]
    },
    {
      "id": "exo:toi-1860",
      "name": "TOI-1860",
      "star": {
        "id": "exo:toi-1860",
        "kind": "star",
        "name": "TOI-1860",
        "positionPc": [
          -6.486774759449226,
          30.444401611917073,
          33.6833291071227
        ],
        "absMag": 5.092640356166906,
        "colorIndexBV": 0.6572669276458124
      },
      "bodies": [
        {
          "id": "exo:toi-1860:star",
          "kind": "planet",
          "parentId": "exo:toi-1860",
          "radiusKm": 653958,
          "unlit": true,
          "surfaceColorLinear": [
            1,
            0.8875013848475579,
            0.7896882281013072
          ]
        },
        {
          "id": "exo:toi-1860:b",
          "kind": "planet",
          "name": "TOI-1860 b",
          "parentId": "exo:toi-1860",
          "radiusKm": 8346.01,
          "elements": {
            "semiMajorAxisAu": 0.0204,
            "eccentricity": 0,
            "inclinationRad": 2.6872291693138863,
            "ascendingNodeLongitudeRad": 3.7064663705503116,
            "argumentOfPeriapsisRad": 0.8028783199047019,
            "meanAnomalyAtEpochRad": 1.7775907179827712,
            "epochJD": 2451545,
            "muKm3S2": 131385315617.81999
          },
          "surfaceColorLinear": [
            0.55,
            0.35,
            0.2
          ]
        }
      ]
    }
  ]
}
